CCSDS_OEM_VERS = 1.0
CREATION_DATE  = 2017-05-11T11:14:57
ORIGINATOR     = GMAT USER

META_START
OBJECT_NAME          = MOPSSat_alt_35785_km_RAAN_90_062
OBJECT_ID            = SatId
CENTER_NAME          = Earth
REF_FRAME            = EME2000
TIME_SYSTEM          = UTC
START_TIME           = 2017-01-01T00:00:00.000
USEABLE_START_TIME   = 2017-01-01T00:00:00.000
USEABLE_STOP_TIME    = 2017-01-02T00:00:00.000
STOP_TIME            = 2017-01-02T00:00:00.000
INTERPOLATION        = Lagrange
INTERPOLATION_DEGREE = 7 
META_STOP


                                                                                   

2017-01-01T15:25:50.000   3.326500395816835e+04  -2.589799311054413e+04  -5.813565651395520e+02   1.888347092125786e+00   2.426485004104682e+00  -3.307903210691762e-02
2017-01-01T15:26:00.000   3.328387858114680e+04  -2.587372137625251e+04  -5.816872010321632e+02   1.886577393785104e+00   2.427861713061667e+00  -3.304814449046328e-02
2017-01-01T15:26:10.000   3.330273550224106e+04  -2.584943588117548e+04  -5.820175279627069e+02   1.884806691818605e+00   2.429237130855976e+00  -3.301723928234777e-02
2017-01-01T15:26:20.000   3.332157471146865e+04  -2.582513663816376e+04  -5.823475457562083e+02   1.883034987163314e+00   2.430611256759269e+00  -3.298631649889926e-02
2017-01-01T15:26:30.000   3.334039619881455e+04  -2.580082366012993e+04  -5.826772542371220e+02   1.881262280760765e+00   2.431984090040835e+00  -3.295537615652474e-02
2017-01-01T15:26:40.000   3.335919995428615e+04  -2.577649695997659e+04  -5.830066532302939e+02   1.879488573551767e+00   2.433355629971593e+00  -3.292441827161851e-02
2017-01-01T15:26:50.000   3.337798596766715e+04  -2.575215655091819e+04  -5.833357425566495e+02   1.877713866499869e+00   2.434725875806148e+00  -3.289344286097182e-02
2017-01-01T15:27:00.000   3.339675422881606e+04  -2.572780244609127e+04  -5.836645220384262e+02   1.875938160562937e+00   2.436094826804564e+00  -3.286244994127684e-02
2017-01-01T15:27:10.000   3.341550472755509e+04  -2.570343465869930e+04  -5.839929914972220e+02   1.874161456703717e+00   2.437462482224256e+00  -3.283143952931094e-02
2017-01-01T15:27:20.000   3.343423745410152e+04  -2.567905320145221e+04  -5.843211507615566e+02   1.872383755848974e+00   2.438828841351455e+00  -3.280041164122344e-02
2017-01-01T15:27:30.000   3.345295239863734e+04  -2.565465808712528e+04  -5.846489996593298e+02   1.870605058930234e+00   2.440193903469817e+00  -3.276936629324699e-02
2017-01-01T15:27:40.000   3.347164955140690e+04  -2.563024932843271e+04  -5.849765380195340e+02   1.868825366874576e+00   2.441557667867551e+00  -3.273830350153646e-02
2017-01-01T15:27:50.000   3.349032890247249e+04  -2.560582693834192e+04  -5.853037656679701e+02   1.867044680627537e+00   2.442920133819583e+00  -3.270722328256907e-02
2017-01-01T15:28:00.000   3.350899044189658e+04  -2.558139092984072e+04  -5.856306824304419e+02   1.865263001136142e+00   2.444281300600855e+00  -3.267612565284801e-02
2017-01-01T15:28:10.000   3.352763415974083e+04  -2.555694131593656e+04  -5.859572881327387e+02   1.863480329348851e+00   2.445641167486248e+00  -3.264501062890155e-02
2017-01-01T15:28:20.000   3.354626004588924e+04  -2.553247810989345e+04  -5.862835825975357e+02   1.861696666232828e+00   2.446999733737685e+00  -3.261387822758448e-02
2017-01-01T15:28:30.000   3.356486809028730e+04  -2.550800132491352e+04  -5.866095656485844e+02   1.859912012750731e+00   2.448356998621579e+00  -3.258272846567303e-02
2017-01-01T15:28:40.000   3.358345828284752e+04  -2.548351097426232e+04  -5.869352371090582e+02   1.858126369869833e+00   2.449712961401927e+00  -3.255156136002400e-02
2017-01-01T15:28:50.000   3.360203061386904e+04  -2.545900707071606e+04  -5.872605968089031e+02   1.856339738521742e+00   2.451067621370939e+00  -3.252037692687168e-02
2017-01-01T15:29:00.000   3.362058507361778e+04  -2.543448962711427e+04  -5.875856445774817e+02   1.854552119642668e+00   2.452420977818398e+00  -3.248917518253084e-02
2017-01-01T15:29:10.000   3.363912165242187e+04  -2.540995865623492e+04  -5.879103802452446e+02   1.852763514164346e+00   2.453773030038618e+00  -3.245795614323809e-02
2017-01-01T15:29:20.000   3.365764034042882e+04  -2.538541417111040e+04  -5.882348036394800e+02   1.850973923037055e+00   2.455123777312752e+00  -3.242671982555379e-02
2017-01-01T15:29:30.000   3.367614112778660e+04  -2.536085618479348e+04  -5.885589145874807e+02   1.849183347212564e+00   2.456473218921973e+00  -3.239546624606438e-02
2017-01-01T15:29:40.000   3.369462400464244e+04  -2.533628471035661e+04  -5.888827129165267e+02   1.847391787644076e+00   2.457821354147411e+00  -3.236419542138134e-02
2017-01-01T15:29:50.000   3.371308896096756e+04  -2.531169976112995e+04  -5.892061984508138e+02   1.845599245303580e+00   2.459168182257351e+00  -3.233290736844412e-02
2017-01-01T15:30:00.000   3.373153598679433e+04  -2.528710135038135e+04  -5.895293710156081e+02   1.843805721158533e+00   2.460513702524544e+00  -3.230160210411312e-02
2017-01-01T15:30:10.000   3.374996507212253e+04  -2.526248949144231e+04  -5.898522304356034e+02   1.842011216181023e+00   2.461857914219361e+00  -3.227027964532958e-02
2017-01-01T15:30:20.000   3.376837620733537e+04  -2.523786419715249e+04  -5.901747765422098e+02   1.840215731307284e+00   2.463200816640140e+00  -3.223894000840903e-02
2017-01-01T15:30:30.000   3.378676938278325e+04  -2.521322548041503e+04  -5.904970091662630e+02   1.838419267478177e+00   2.464542409082828e+00  -3.220758320974772e-02
2017-01-01T15:30:40.000   3.380514458887831e+04  -2.518857335407117e+04  -5.908189281396780e+02   1.836621825630047e+00   2.465882690847875e+00  -3.217620926566327e-02
2017-01-01T15:30:50.000   3.382350181585383e+04  -2.516390783121767e+04  -5.911405332912368e+02   1.834823406717878e+00   2.467221661222688e+00  -3.214481819279852e-02
2017-01-01T15:31:00.000   3.384184105394366e+04  -2.513922892497177e+04  -5.914618244497293e+02   1.833024011698138e+00   2.468559319494708e+00  -3.211341000782235e-02
2017-01-01T15:31:10.000   3.386016229338099e+04  -2.511453664847030e+04  -5.917828014439341e+02   1.831223641528732e+00   2.469895664951338e+00  -3.208198472742874e-02
2017-01-01T15:31:20.000   3.387846552422480e+04  -2.508983101510897e+04  -5.921034640995753e+02   1.829422297186435e+00   2.471230696867265e+00  -3.205054236864113e-02
2017-01-01T15:31:30.000   3.389675073659472e+04  -2.506511203822084e+04  -5.924238122434397e+02   1.827619979643460e+00   2.472564414521606e+00  -3.201908294840331e-02
2017-01-01T15:31:40.000   3.391501792057646e+04  -2.504037973120516e+04  -5.927438457017198e+02   1.825816689876844e+00   2.473896817191005e+00  -3.198760648374341e-02
2017-01-01T15:31:50.000   3.393326706664099e+04  -2.501563410695993e+04  -5.930635643073558e+02   1.824012428827074e+00   2.475227904180205e+00  -3.195611299105157e-02
2017-01-01T15:32:00.000   3.395149816522421e+04  -2.499087517845061e+04  -5.933829678926716e+02   1.822207197439563e+00   2.476557674791387e+00  -3.192460248680395e-02
2017-01-01T15:32:10.000   3.396971120683548e+04  -2.496610295856345e+04  -5.937020562912788e+02   1.820400996653945e+00   2.477886128332099e+00  -3.189307498737591e-02
2017-01-01T15:32:20.000   3.398790618176497e+04  -2.494131746049957e+04  -5.940208293329472e+02   1.818593827432811e+00   2.479213264093896e+00  -3.186153050954358e-02
2017-01-01T15:32:30.000   3.400608308032548e+04  -2.491651869744994e+04  -5.943392868478437e+02   1.816785690738016e+00   2.480539081369985e+00  -3.182996907007026e-02
2017-01-01T15:32:40.000   3.402424189279853e+04  -2.489170668266790e+04  -5.946574286655837e+02   1.814976587535960e+00   2.481863579451291e+00  -3.179839068579868e-02
2017-01-01T15:32:50.000   3.404238260945006e+04  -2.486688142945029e+04  -5.949752546155107e+02   1.813166518796220e+00   2.483186757627605e+00  -3.176679537362698e-02
2017-01-01T15:33:00.000   3.406050522054758e+04  -2.484204295111194e+04  -5.952927645269942e+02   1.811355485489680e+00   2.484508615188832e+00  -3.173518315047628e-02
2017-01-01T15:33:10.000   3.407860971636676e+04  -2.481719126097683e+04  -5.956099582295460e+02   1.809543488587892e+00   2.485829151425470e+00  -3.170355403327935e-02
2017-01-01T15:33:20.000   3.409669608725677e+04  -2.479232637228955e+04  -5.959268355539643e+02   1.807730529056625e+00   2.487148365633383e+00  -3.167190803886805e-02
2017-01-01T15:33:30.000   3.411476432359645e+04  -2.476744829827415e+04  -5.962433963315663e+02   1.805916607860144e+00   2.488466257110594e+00  -3.164024518404805e-02
2017-01-01T15:33:40.000   3.413281441579444e+04  -2.474255705213412e+04  -5.965596403941902e+02   1.804101725961222e+00   2.489782825157303e+00  -3.160856548559901e-02
2017-01-01T15:33:50.000   3.415084635433143e+04  -2.471765264699258e+04  -5.968755675749372e+02   1.802285884316769e+00   2.491098069078968e+00  -3.157686896019834e-02
2017-01-01T15:34:00.000   3.416886012969630e+04  -2.469273509598168e+04  -5.971911777070492e+02   1.800469083884353e+00   2.492411988181639e+00  -3.154515562453496e-02
2017-01-01T15:34:10.000   3.418685573237966e+04  -2.466780441225168e+04  -5.975064706237986e+02   1.798651325622865e+00   2.493724581771497e+00  -3.151342549532091e-02
2017-01-01T15:34:20.000   3.420483315285484e+04  -2.464286060899489e+04  -5.978214461581531e+02   1.796832610494264e+00   2.495035849153458e+00  -3.148167858932183e-02
2017-01-01T15:34:30.000   3.422279238156481e+04  -2.461790369946671e+04  -5.981361041425497e+02   1.795012939465105e+00   2.496345789630234e+00  -3.144991492338364e-02
2017-01-01T15:34:40.000   3.424073340897460e+04  -2.459293369691169e+04  -5.984504444098089e+02   1.793192313501155e+00   2.497654402506134e+00  -3.141813451433857e-02
2017-01-01T15:34:50.000   3.425865622533656e+04  -2.456795061489389e+04  -5.987644667890249e+02   1.791370733591479e+00   2.498961687069960e+00  -3.138633737942560e-02
